[
    {
        "Altitude(m)": 558927.97803764,
        "Argument of Periapsis(deg)": 0.013245982221427002,
        "Eccentricity": 0.0,
        "Inclination(deg)": 53.0,
        "Latitude(deg)": -20.103989254658888,
        "Longitude(deg)": -102.49759587741367,
        "Mean Anomaly(deg)": 334.7286857351552,
        "RAAN(deg)": 14.980286737056032,
        "Satellite Name": "Starlink Shell 1 85",
        "Satellite Number": 85,
        "Semi-Major Axis(m)": 6931778.249405717,
        "Time(s)": 380
    },
    {
        "Altitude(m)": 558770.945397634,
        "Argument of Periapsis(deg)": 0.013594560700938237,
        "Eccentricity": 0.0,
        "Inclination(deg)": 53.0,
        "Latitude(deg)": -19.619938377543743,
        "Longitude(deg)": -102.113876627272,
        "Mean Anomaly(deg)": 335.35551693871196,
        "RAAN(deg)": 14.979767966978562,
        "Satellite Name": "Starlink Shell 1 85",
        "Satellite Number": 85,
        "Semi-Major Axis(m)": 6931778.249405717,
        "Time(s)": 390
    },
    {
        "Altitude(m)": 558615.4204944221,
        "Argument of Periapsis(deg)": 0.013943139180449475,
        "Eccentricity": 0.0,
        "Inclination(deg)": 53.0,
        "Latitude(deg)": -19.1348501125947,
        "Longitude(deg)": -101.73268249740457,
        "Mean Anomaly(deg)": 335.9823481422687,
        "RAAN(deg)": 14.979249196901089,
        "Satellite Name": "Starlink Shell 1 85",
        "Satellite Number": 85,
        "Semi-Major Axis(m)": 6931778.249405717,
        "Time(s)": 400
    },
    {
        "Altitude(m)": 558461.4567993557,
        "Argument of Periapsis(deg)": 0.014291717659960712,
        "Eccentricity": 0.0,
        "Inclination(deg)": 53.0,
        "Latitude(deg)": -18.648757127284338,
        "Longitude(deg)": -101.35393614610643,
        "Mean Anomaly(deg)": 336.6091793458254,
        "RAAN(deg)": 14.978730426823613,
        "Satellite Name": "Starlink Shell 1 85",
        "Satellite Number": 85,
        "Semi-Major Axis(m)": 6931778.249405717,
        "Time(s)": 410
    },
    {
        "Altitude(m)": 558309.1069389613,
        "Argument of Periapsis(deg)": 0.014640296139471948,
        "Eccentricity": 0.0,
        "Inclination(deg)": 53.0,
        "Latitude(deg)": -18.16169153665212,
        "Longitude(deg)": -100.97756172866941,
        "Mean Anomaly(deg)": 337.23601054938206,
        "RAAN(deg)": 14.978211656746142,
        "Satellite Name": "Starlink Shell 1 85",
        "Satellite Number": 85,
        "Semi-Major Axis(m)": 6931778.249405717,
        "Time(s)": 420
    },
    {
        "Altitude(m)": 558158.4226715813,
        "Argument of Periapsis(deg)": 0.014988874618983185,
        "Eccentricity": 0.0,
        "Inclination(deg)": 53.0,
        "Latitude(deg)": -17.673684923284824,
        "Longitude(deg)": -100.60348436781095,
        "Mean Anomaly(deg)": 337.86284175293883,
        "RAAN(deg)": 14.977692886668668,
        "Satellite Name": "Starlink Shell 1 85",
        "Satellite Number": 85,
        "Semi-Major Axis(m)": 6931778.249405717,
        "Time(s)": 430
    },
    {
        "Altitude(m)": 558009.4548644493,
        "Argument of Periapsis(deg)": 0.015337453098494424,
        "Eccentricity": 0.0,
        "Inclination(deg)": 53.0,
        "Latitude(deg)": -17.18476835685872,
        "Longitude(deg)": -100.23162962378605,
        "Mean Anomaly(deg)": 338.48967295649555,
        "RAAN(deg)": 14.977174116591195,
        "Satellite Name": "Starlink Shell 1 85",
        "Satellite Number": 85,
        "Semi-Major Axis(m)": 6931778.249405717,
        "Time(s)": 440
    },
    {
        "Altitude(m)": 557862.2534711517,
        "Argument of Periapsis(deg)": 0.01568603157800566,
        "Eccentricity": 0.0,
        "Inclination(deg)": 53.0,
        "Latitude(deg)": -16.694972413251946,
        "Longitude(deg)": -99.86192447710448,
        "Mean Anomaly(deg)": 339.1165041600522,
        "RAAN(deg)": 14.976655346513724,
        "Satellite Name": "Starlink Shell 1 85",
        "Satellite Number": 85,
        "Semi-Major Axis(m)": 6931778.249405717,
        "Time(s)": 450
    },
    {
        "Altitude(m)": 557716.8675096161,
        "Argument of Periapsis(deg)": 0.0160346100575169,
        "Eccentricity": 0.0,
        "Inclination(deg)": 53.0,
        "Latitude(deg)": -16.204327193242136,
        "Longitude(deg)": -99.49429679815198,
        "Mean Anomaly(deg)": 339.743335363609,
        "RAAN(deg)": 14.976136576436252,
        "Satellite Name": "Starlink Shell 1 85",
        "Satellite Number": 85,
        "Semi-Major Axis(m)": 6931778.249405717,
        "Time(s)": 460
    },
    {
        "Altitude(m)": 557573.3450404436,
        "Argument of Periapsis(deg)": 0.016383188537028134,
        "Eccentricity": 0.0,
        "Inclination(deg)": 53.0,
        "Latitude(deg)": -15.712862340797578,
        "Longitude(deg)": -99.12867481662866,
        "Mean Anomaly(deg)": 340.37016656716565,
        "RAAN(deg)": 14.975617806358777,
        "Satellite Name": "Starlink Shell 1 85",
        "Satellite Number": 85,
        "Semi-Major Axis(m)": 6931778.249405717,
        "Time(s)": 470
    },
    {
        "Altitude(m)": 557431.7331458179,
        "Argument of Periapsis(deg)": 0.01673176701653937,
        "Eccentricity": 0.0,
        "Inclination(deg)": 53.0,
        "Latitude(deg)": -15.220607060975095,
        "Longitude(deg)": -98.7649881037176,
        "Mean Anomaly(deg)": 340.9969977707224,
        "RAAN(deg)": 14.975099036281303,
        "Satellite Name": "Starlink Shell 1 85",
        "Satellite Number": 85,
        "Semi-Major Axis(m)": 6931778.249405717,
        "Time(s)": 480
    },
    {
        "Altitude(m)": 557292.0779088187,
        "Argument of Periapsis(deg)": 0.017080345496050607,
        "Eccentricity": 0.0,
        "Inclination(deg)": 53.0,
        "Latitude(deg)": -14.72759013743654,
        "Longitude(deg)": -98.40316704126658,
        "Mean Anomaly(deg)": 341.6238289742791,
        "RAAN(deg)": 14.974580266203834,
        "Satellite Name": "Starlink Shell 1 85",
        "Satellite Number": 85,
        "Semi-Major Axis(m)": 6931778.249405717,
        "Time(s)": 490
    },
    {
        "Altitude(m)": 557154.4243932462,
        "Argument of Periapsis(deg)": 0.017428923975561842,
        "Eccentricity": 0.0,
        "Inclination(deg)": 53.0,
        "Latitude(deg)": -14.233839949596241,
        "Longitude(deg)": -98.04314229088939,
        "Mean Anomaly(deg)": 342.2506601778358,
        "RAAN(deg)": 14.97406149612636,
        "Satellite Name": "Starlink Shell 1 85",
        "Satellite Number": 85,
        "Semi-Major Axis(m)": 6931778.249405717,
        "Time(s)": 500
    },
    {
        "Altitude(m)": 557018.8166239442,
        "Argument of Periapsis(deg)": 0.01777750245507308,
        "Eccentricity": 0.0,
        "Inclination(deg)": 53.0,
        "Latitude(deg)": -13.739384489410211,
        "Longitude(deg)": -97.68484577588454,
        "Mean Anomaly(deg)": 342.87749138139253,
        "RAAN(deg)": 14.973542726048885,
        "Satellite Name": "Starlink Shell 1 85",
        "Satellite Number": 85,
        "Semi-Major Axis(m)": 6931778.249405717,
        "Time(s)": 510
    },
    {
        "Altitude(m)": 556885.2975676351,
        "Argument of Periapsis(deg)": 0.018126080934584315,
        "Eccentricity": 0.0,
        "Inclination(deg)": 53.0,
        "Latitude(deg)": -13.244251377821113,
        "Longitude(deg)": -97.3282101502492,
        "Mean Anomaly(deg)": 343.50432258494925,
        "RAAN(deg)": 14.973023955971417,
        "Satellite Name": "Starlink Shell 1 85",
        "Satellite Number": 85,
        "Semi-Major Axis(m)": 6931778.249405717,
        "Time(s)": 520
    },
    {
        "Altitude(m)": 556753.9091142791,
        "Argument of Periapsis(deg)": 0.018474659414095554,
        "Eccentricity": 0.0,
        "Inclination(deg)": 53.0,
        "Latitude(deg)": -12.748467880870672,
        "Longitude(deg)": -96.97316826768215,
        "Mean Anomaly(deg)": 344.1311537885059,
        "RAAN(deg)": 14.97250518589394,
        "Satellite Name": "Starlink Shell 1 85",
        "Satellite Number": 85,
        "Semi-Major Axis(m)": 6931778.249405717,
        "Time(s)": 530
    },
    {
        "Altitude(m)": 556624.6920589248,
        "Argument of Periapsis(deg)": 0.018823237893606792,
        "Eccentricity": 0.0,
        "Inclination(deg)": 53.0,
        "Latitude(deg)": -12.252060925490987,
        "Longitude(deg)": -96.619654163468,
        "Mean Anomaly(deg)": 344.7579849920627,
        "RAAN(deg)": 14.971986415816467,
        "Satellite Name": "Starlink Shell 1 85",
        "Satellite Number": 85,
        "Semi-Major Axis(m)": 6931778.249405717,
        "Time(s)": 540
    },
    {
        "Altitude(m)": 556497.6860841715,
        "Argument of Periapsis(deg)": 0.019171816373118027,
        "Eccentricity": 0.0,
        "Inclination(deg)": 53.0,
        "Latitude(deg)": -11.755057114988615,
        "Longitude(deg)": -96.26760252351087,
        "Mean Anomaly(deg)": -14.615183804380585,
        "RAAN(deg)": 14.971467645738995,
        "Satellite Name": "Starlink Shell 1 85",
        "Satellite Number": 85,
        "Semi-Major Axis(m)": 6931778.249405717,
        "Time(s)": 550
    },
    {
        "Altitude(m)": 556372.9297431106,
        "Argument of Periapsis(deg)": 0.019520394852629266,
        "Eccentricity": 0.0,
        "Inclination(deg)": 53.0,
        "Latitude(deg)": -11.257482744232918,
        "Longitude(deg)": -95.91694815340499,
        "Mean Anomaly(deg)": -13.988352600823877,
        "RAAN(deg)": 14.970948875661524,
        "Satellite Name": "Starlink Shell 1 85",
        "Satellite Number": 85,
        "Semi-Major Axis(m)": 6931778.249405717,
        "Time(s)": 560
    }
]